{
    "links": {
        "self": "http://www.neowsapp.com/rest/v1/neo/3989340?api_key=iIulBulltgU6a56xZRHN4H3l9WmuAYTsLGpBGhQ2"
    },
    "id": "3989340",
    "neo_reference_id": "3989340",
    "name": "(2020 BV14)",
    "designation": "2020 BV14",
    "nasa_jpl_url": "http://ssd.jpl.nasa.gov/sbdb.cgi?sstr=3989340",
    "absolute_magnitude_h": 23.193,
    "estimated_diameter": {
        "kilometers": {
            "estimated_diameter_min": 0.0610878692,
            "estimated_diameter_max": 0.1365966281
        },
        "meters": {
            "estimated_diameter_min": 61.087869171,
            "estimated_diameter_max": 136.596628067
        },
        "miles": {
            "estimated_diameter_min": 0.0379582304,
            "estimated_diameter_max": 0.0848771834
        },
        "feet": {
            "estimated_diameter_min": 200.419524691,
            "estimated_diameter_max": 448.1516812273
        }
    },
    "is_potentially_hazardous_asteroid": false,
    "close_approach_data": [
        {
            "close_approach_date": "2020-02-15",
            "close_approach_date_full": "2020-Feb-15 04:49",
            "epoch_date_close_approach": 1581742140000,
            "relative_velocity": {
                "kilometers_per_second": "11.8006971501",
                "kilometers_per_hour": "42482.5097404669",
                "miles_per_hour": "26396.9794551251"
            },
            "miss_distance": {
                "astronomical": "0.1675078942",
                "lunar": "65.1605708438",
                "kilometers": "25058824.180505354",
                "miles": "15570831.3167237252"
            },
            "orbiting_body": "Earth"
        }
    ],
    "orbital_data": {
        "orbit_id": "2",
        "orbit_determination_date": "2020-02-06 05:21:05",
        "first_observation_date": "2020-01-29",
        "last_observation_date": "2020-02-06",
        "data_arc_in_days": 8,
        "observations_used": 27,
        "orbit_uncertainty": "9",
        "minimum_orbit_intersection": ".0193601",
        "jupiter_tisserand_invariant": "3.525",
        "epoch_osculation": "2458878.5",
        "eccentricity": ".5259659555030589",
        "semi_major_axis": "2.136045792195495",
        "inclination": "2.78249491103498",
        "ascending_node_longitude": "198.199676434158",
        "orbital_period": "1140.287241391739",
        "perihelion_distance": "1.012558426105103",
        "perihelion_argument": "342.2531192050462",
        "aphelion_distance": "3.259533158285887",
        "perihelion_time": "2458917.218944476497",
        "mean_anomaly": "347.7760449248504",
        "mean_motion": ".3157099254751058",
        "equinox": "J2000",
        "orbit_class": {
            "orbit_class_type": "APO",
            "orbit_class_description": "Near-Earth asteroid orbits which cross the Earth’s orbit similar to that of 1862 Apollo",
            "orbit_class_range": "a (semi-major axis) > 1.0 AU; q (perihelion) < 1.017 AU"
        }
    },
    "is_sentry_object": false
}